LEMUR-1                 
1 40044U 14033AL  26176.04143103  .00001756  00000+0  20650-3 0  9995
2 40044  97.7884 325.6722 0049342  53.5333 307.0414 14.85272967646633
LEMUR-2-GREENBERG       
1 42837U 17042N   26176.05857030  .00018719  00000+0  61566-3 0  9990
2 42837  97.3821 356.6481 0007784 344.2762  15.8237 15.31546172489599
LEMUR-2-ANDIS           
1 42838U 17042P   26175.93932698  .00023927  00000+0  70234-3 0  9990
2 42838  97.3683 356.7406 0007561 342.5327  17.5655 15.35122839489648
LEMUR-2-MONSON          
1 42839U 17042Q   26176.01898653  .00017170  00000+0  62624-3 0  9990
2 42839  97.4082 356.5692 0005549 335.7965  24.3013 15.28209666489363
LEMUR-2-FURIAUS         
1 42840U 17042R   26176.05786398  .00019524  00000+0  66341-3 0  9993
2 42840  97.3771 354.5849 0007630  43.8967 316.2879 15.30484069489417
LEMUR-2-PETERG          
1 42841U 17042S   26176.05876287  .00026813  00000+0  81094-3 0  9992
2 42841  97.3994   1.1031 0002715 319.7040  40.4001 15.34179839489647
LEMUR-2-DEMBITZ         
1 42842U 17042T   26175.03147034  .00013832  00000+0  47138-3 0  9999
2 42842  97.3828 356.5944 0006155   4.7576 355.3722 15.30475147489398
LEMUR-2-ZACHARY         
1 42845U 17042W   26176.06330052  .00057027  00000+0  98180-3 0  9997
2 42845  97.3596   7.8706 0002388 356.1191   4.0042 15.50897643490426
LEMUR-2-AMANDA-SVANTE   
1 48269U 21034B   26176.18264424  .00040024  00000+0  11863-2 0  9992
2 48269  97.5760 254.6807 0003134 186.1710 173.9495 15.34732723282289
LEMUR-2-SPECIAL-K       
1 48273U 21034F   26175.18113034  .00146578  00000+0  13957-2 0  9993
2 48273  97.5651 262.5537 0004934 222.5540 137.5338 15.66336131282781
LEMUR-2-EMBRIONOVIS     
1 56970U 23084AQ  26176.14111030  .00016063  00000+0  43505-3 0  9992
2 56970  97.6292 320.6469 0007463 287.0247  73.0179 15.37730349168907
LEMUR-2-DEVERILL-M-T    
1 57391U 23100F   26176.03220507  .00029313  00000+0  73258-3 0  9997
2 57391  99.4472 217.0572 0005649  23.0899 337.0593 15.40105639162453
LEMUR-2-BASS            
1 58259U 23174D   26176.18587397  .00020799  00000+0  46742-3 0  9998
2 58259  97.3851 261.0108 0008107 137.7069 222.4805 15.43338546146591
LEMUR-2-JK0903EM1407    
1 58336U 23174CJ  26175.94601567  .00031050  00000+0  51545-3 0  9992
2 58336  97.3928 266.6357 0005273  97.8712 262.3139 15.52042861146934
LEMUR-2-MJR092620       
1 58340U 23174CN  26176.18989171  .00023006  00000+0  48626-3 0  9992
2 58340  97.3978 266.3672 0006915  94.4670 265.7368 15.45146260146886
LEMUR-2-NIMBUS2000      
1 58899U 24022A   26176.13532410  .00026803  00000+0  66487-3 0  9992
2 58899  97.4109  26.2373 0010322  91.8550 268.3878 15.40290453133495
LEMUR-2-VALHALLA        
1 58900U 24022B   26176.13336811  .00019558  00000+0  49244-3 0  9993
2 58900  97.4105  26.2216 0010813  88.0095 272.2389 15.39892857133492
LEMUR-2-CAEL            
1 58903U 24022E   26176.07151397  .00020671  00000+0  49854-3 0  9998
2 58903  97.4088  27.1089 0009031  74.2440 285.9802 15.41208734133550
LEMUR-2-JOHNNYTRUONG    
1 59146U 24043BA  26176.16441674  .00047787  00000+0  56768-3 0  9990
2 59146  97.5374 328.3649 0004900 152.4708 207.6809 15.61022815129282
LEMUR-2-TOMATOKECHUP    
1 60471U 24149D   26176.18494964  .00012782  00000+0  36462-3 0  9998
2 60471  97.3802 258.2524 0002138 160.3945 199.7382 15.36183236103392
LEMUR-2-STELLA          
1 60533U 24149BT  26175.16356701  .00009808  00000+0  57577-3 0  9995
2 60533  97.6735 257.6491 0001484  95.7079 264.4320 15.11934480101553
LEMUR-2-MARHISYAM       
1 60536U 24149BW  26175.21263513  .00008476  00000+0  50589-3 0  9998
2 60536  97.6882 258.1549 0003458 104.9077 255.2536 15.11376723101549
LEMUR-2-AHMED-ASRAR     
1 60576U 24149DN  26176.16598369  .00014037  00000+0  80077-3 0  9992
2 60576  97.7007 261.2370 0001135  24.8255 335.3030 15.12874742101777
LEMUR-2-LLOYD           
1 60577U 24149DP  26176.19686653  .00011554  00000+0  72655-3 0  9994
2 60577  97.6745 257.3303 0005176 120.0067 240.1676 15.09376648101606
LEMUR-2-SQUIRRELCOMM    
1 60578U 24149DQ  26176.15587704  .00006772  00000+0  45329-3 0  9992
2 60578  97.6718 257.0421 0005973  39.5945 320.5718 15.07235269101600
LEMUR-2-SIERRINI        
1 60579U 24149DR  26176.16468600  .00013425  00000+0  80431-3 0  9993
2 60579  97.6846 258.7922 0006332 142.2598 217.9077 15.11099063101661
LEMUR-2-WILSON          
1 62694U 25009CP  26176.19268509  .00001790  00000+0  16810-3 0  9990
2 62694  97.7026 254.5169 0003731  35.7287 324.4183 14.95197745 78550
LEMUR-2-STAR-FOX        
1 62696U 25009CR  26176.15078679  .00007193  00000+0  54445-3 0  9994
2 62696  97.6954 257.7024 0004382  95.0100 265.1626 15.02602064 78751
LEMUR-2-ARIANNA         
1 62699U 25009CU  26175.21691439  .00006424  00000+0  48720-3 0  9993
2 62699  97.6893 256.5439 0004757 101.2829 258.8931 15.02568487 78610
LEMUR-2-ALISIA          
1 62706U 25009DB  26176.19223491  .00009275  00000+0  69573-3 0  9995
2 62706  97.6933 258.3064 0002696 183.6818 176.4387 15.02867622101362
