OBJECT_NAME,OBJECT_ID,EPOCH,MEAN_MOTION,ECCENTRICITY,INCLINATION,RA_OF_ASC_NODE,ARG_OF_PERICENTER,MEAN_ANOMALY,EPHEMERIS_TYPE,CLASSIFICATION_TYPE,NORAD_CAT_ID,ELEMENT_SET_NO,REV_AT_EPOCH,BSTAR,MEAN_MOTION_DOT,MEAN_MOTION_DDOT
LEMUR-1,2014-033AL,2026-06-25T00:59:39.640992,14.85272967,.0049342,97.7884,325.6722,53.5333,307.0414,0,U,40044,999,64663,.2065E-3,.1756E-4,0
LEMUR-2-GREENBERG,2017-042N,2026-06-25T01:24:20.473920,15.31546172,.0007784,97.3821,356.6481,344.2762,15.8237,0,U,42837,999,48959,.61566E-3,.18719E-3,0
LEMUR-2-ANDIS,2017-042P,2026-06-24T22:32:37.851072,15.35122839,.0007561,97.3683,356.7406,342.5327,17.5655,0,U,42838,999,48964,.70234E-3,.23927E-3,0
LEMUR-2-MONSON,2017-042Q,2026-06-25T00:27:20.436192,15.28209666,.0005549,97.4082,356.5692,335.7965,24.3013,0,U,42839,999,48936,.62624E-3,.1717E-3,0
LEMUR-2-FURIAUS,2017-042R,2026-06-25T01:23:19.447872,15.30484069,.000763,97.3771,354.5849,43.8967,316.2879,0,U,42840,999,48941,.66341E-3,.19524E-3,0
LEMUR-2-PETERG,2017-042S,2026-06-25T01:24:37.111968,15.34179839,.0002715,97.3994,1.1031,319.7040,40.4001,0,U,42841,999,48964,.81094E-3,.26813E-3,0
LEMUR-2-DEMBITZ,2017-042T,2026-06-24T00:45:19.037376,15.30475147,.00061552,97.3828,356.5944,4.7576,355.3722,0,U,42842,999,48939,.47138133E-3,.13832E-3,0
LEMUR-2-ZACHARY,2017-042W,2026-06-25T01:31:09.164928,15.50897643,.0002388,97.3596,7.8706,356.1191,4.0042,0,U,42845,999,49042,.9818E-3,.57027E-3,0
LEMUR-2-AMANDA-SVANTE,2021-034B,2026-06-25T04:23:00.462336,15.34732723,.0003134,97.5760,254.6807,186.1710,173.9495,0,U,48269,999,28228,.11863E-2,.40024E-3,0
LEMUR-2-SPECIAL-K,2021-034F,2026-06-24T04:20:49.661376,15.66336131,.00049345,97.5651,262.5537,222.5540,137.5338,0,U,48273,999,28278,.13956716E-2,.146578E-2,0
LEMUR-2-EMBRIONOVIS,2023-084AQ,2026-06-25T03:23:11.929920,15.37730349,.0007463,97.6292,320.6469,287.0247,73.0179,0,U,56970,999,16890,.43505E-3,.16063E-3,0
LEMUR-2-DEVERILL-M-T,2023-100F,2026-06-25T00:46:22.518048,15.40105639,.0005649,99.4472,217.0572,23.0899,337.0593,0,U,57391,999,16245,.73258E-3,.29313E-3,0
LEMUR-2-BASS,2023-174D,2026-06-25T04:27:39.511008,15.43338546,.0008107,97.3851,261.0108,137.7069,222.4805,0,U,58259,999,14659,.46742E-3,.20799E-3,0
LEMUR-2-JK0903EM1407,2023-174CJ,2026-06-24T22:42:15.753888,15.52042861,.0005273,97.3928,266.6357,97.8712,262.3139,0,U,58336,999,14693,.51545E-3,.3105E-3,0
LEMUR-2-MJR092620,2023-174CN,2026-06-25T04:33:26.643744,15.45146260,.0006915,97.3978,266.3672,94.4670,265.7368,0,U,58340,999,14688,.48626E-3,.23006E-3,0
LEMUR-2-NIMBUS2000,2024-022A,2026-06-25T03:14:52.002240,15.40290453,.0010322,97.4109,26.2373,91.8550,268.3878,0,U,58899,999,13349,.66487E-3,.26803E-3,0
LEMUR-2-VALHALLA,2024-022B,2026-06-25T03:12:03.004704,15.39892857,.0010813,97.4105,26.2216,88.0095,272.2389,0,U,58900,999,13349,.49244E-3,.19558E-3,0
LEMUR-2-CAEL,2024-022E,2026-06-25T01:42:58.807008,15.41208734,.0009031,97.4088,27.1089,74.2440,285.9802,0,U,58903,999,13355,.49854E-3,.20671E-3,0
LEMUR-2-JOHNNYTRUONG,2024-043BA,2026-06-25T03:56:45.606336,15.61022815,.00049,97.5374,328.3649,152.4708,207.6809,0,U,59146,999,12928,.56768E-3,.47787E-3,0
LEMUR-2-TOMATOKECHUP,2024-149D,2026-06-25T04:26:19.648896,15.36183236,.0002138,97.3802,258.2524,160.3945,199.7382,0,U,60471,999,10339,.36462E-3,.12782E-3,0
LEMUR-2-STELLA,2024-149BT,2026-06-24T03:55:32.189664,15.11934480,.00014843,97.6735,257.6491,95.7079,264.4320,0,U,60533,999,10155,.575769E-3,.9808E-4,0
LEMUR-2-MARHISYAM,2024-149BW,2026-06-24T05:06:11.675232,15.11376723,.00034587,97.6882,258.1549,104.9077,255.2536,0,U,60536,999,10154,.50589079E-3,.8476E-4,0
LEMUR-2-AHMED-ASRAR,2024-149DN,2026-06-25T03:59:00.990816,15.12874742,.0001135,97.7007,261.2370,24.8255,335.3030,0,U,60576,999,10177,.80077E-3,.14037E-3,0
LEMUR-2-LLOYD,2024-149DP,2026-06-25T04:43:29.268192,15.09376648,.0005176,97.6745,257.3303,120.0067,240.1676,0,U,60577,999,10160,.72655E-3,.11554E-3,0
LEMUR-2-SQUIRRELCOMM,2024-149DQ,2026-06-25T03:44:27.776256,15.07235269,.0005973,97.6718,257.0421,39.5945,320.5718,0,U,60578,999,10160,.45329E-3,.6772E-4,0
LEMUR-2-SIERRINI,2024-149DR,2026-06-25T03:57:08.870400,15.11099063,.0006332,97.6846,258.7922,142.2598,217.9077,0,U,60579,999,10166,.80431E-3,.13425E-3,0
LEMUR-2-WILSON,2025-009CP,2026-06-25T04:37:27.991776,14.95197745,.0003731,97.7026,254.5169,35.7287,324.4183,0,U,62694,999,7855,.1681E-3,.179E-4,0
LEMUR-2-STAR-FOX,2025-009CR,2026-06-25T03:37:07.978656,15.02602064,.0004382,97.6954,257.7024,95.0100,265.1626,0,U,62696,999,7875,.54445E-3,.7193E-4,0
LEMUR-2-ARIANNA,2025-009CU,2026-06-24T05:12:21.403296,15.02568487,.00047578,97.6893,256.5439,101.2829,258.8931,0,U,62699,999,7861,.48720317E-3,.6424E-4,0
LEMUR-2-ALISIA,2025-009DB,2026-06-25T04:36:49.096224,15.02867622,.0002696,97.6933,258.3064,183.6818,176.4387,0,U,62706,999,10136,.69573E-3,.9275E-4,0
